Other
other
CELESTIS-02             
1 25160U 98007D   17275.19239795 -.00000047  00000-0  36527-4 0  9994
2 25160 107.9521  48.8720 0062765 177.8075 248.0262 14.21475837 18769
CELESTIS-03             
1 26034U 99070C   17274.93095274  .00003342  00000-0  22615-3 0  9991
2 26034  98.3143 117.1860 0013539 159.4989 200.6782 15.07239837961517
